{
  "type": "FeatureCollection",
  "features": [
    {
      "type": "Feature",
      "properties": {
        "norad_id": 34420,
        "name": "COSMOS 2251 DEB",
        "group": "cosmos-2251-debris",
        "lat": 61.020538113988216,
        "lon": 127.037193539247,
        "alt_km": 725.3016711319578,
        "timestamp": "2025-12-16T21:38:57.569535+00:00",
        "meta_object_name": "COSMOS 2251 DEB",
        "meta_object_id": "1993-036RM",
        "meta_epoch": "2025-12-16T08:31:27.594336",
        "meta_mean_motion": 14.68308773,
        "meta_eccentricity": 0.01064958,
        "meta_inclination": 74.0329,
        "meta_ra_of_asc_node": 96.9659,
        "meta_arg_of_pericenter": 217.2494,
        "meta_mean_anomaly": 199.3616,
        "meta_ephemeris_type": 0,
        "meta_classification_type": "U",
        "meta_norad_cat_id": 34420,
        "meta_element_set_no": 999,
        "meta_rev_at_epoch": 89823,
        "meta_bstar": 0.0002283002,
        "meta_mean_motion_dot": 1.4e-05,
        "meta_mean_motion_ddot": 0,
        "tle_line1": "1 34420U 93036RM  25350.35518049  .00001400  00000+0  22830-3 0  9996",
        "tle_line2": "2 34420  74.0329  96.9659 0106495 217.2494 199.3616 14.68308773898230"
      },
      "geometry": {
        "type": "Point",
        "coordinates": [
          127.037193539247,
          61.020538113988216
        ]
      }
    },
    {
      "type": "Feature",
      "properties": {
        "norad_id": 34425,
        "name": "COSMOS 2251 DEB",
        "group": "cosmos-2251-debris",
        "lat": 57.217208608528736,
        "lon": 72.95836361978917,
        "alt_km": 686.5653957362674,
        "timestamp": "2025-12-16T21:38:57.569545+00:00",
        "meta_object_name": "COSMOS 2251 DEB",
        "meta_object_id": "1993-036RS",
        "meta_epoch": "2025-12-16T08:14:01.020768",
        "meta_mean_motion": 14.62149937,
        "meta_eccentricity": 0.00245909,
        "meta_inclination": 74.0203,
        "meta_ra_of_asc_node": 47.6101,
        "meta_arg_of_pericenter": 173.2208,
        "meta_mean_anomaly": 186.9296,
        "meta_ephemeris_type": 0,
        "meta_classification_type": "U",
        "meta_norad_cat_id": 34425,
        "meta_element_set_no": 999,
        "meta_rev_at_epoch": 88793,
        "meta_bstar": 0.00040466959,
        "meta_mean_motion_dot": 2.014e-05,
        "meta_mean_motion_ddot": 0,
        "tle_line1": "1 34425U 93036RS  25350.34306737  .00002014  00000+0  40467-3 0  9997",
        "tle_line2": "2 34425  74.0203  47.6101 0024590 173.2208 186.9296 14.62149937887930"
      },
      "geometry": {
        "type": "Point",
        "coordinates": [
          72.95836361978917,
          57.217208608528736
        ]
      }
    },
    {
      "type": "Feature",
      "properties": {
        "norad_id": 34429,
        "name": "COSMOS 2251 DEB",
        "group": "cosmos-2251-debris",
        "lat": -57.15757925919981,
        "lon": 5.3998113131445145,
        "alt_km": 445.86561406278815,
        "timestamp": "2025-12-16T21:38:57.569556+00:00",
        "meta_object_name": "COSMOS 2251 DEB",
        "meta_object_id": "1993-036RW",
        "meta_epoch": "2025-12-15T21:58:06.886272",
        "meta_mean_motion": 15.42937946,
        "meta_eccentricity": 0.00088752,
        "meta_inclination": 73.9688,
        "meta_ra_of_asc_node": 161.0978,
        "meta_arg_of_pericenter": 359.8744,
        "meta_mean_anomaly": 162.2244,
        "meta_ephemeris_type": 0,
        "meta_classification_type": "U",
        "meta_norad_cat_id": 34429,
        "meta_element_set_no": 999,
        "meta_rev_at_epoch": 89497,
        "meta_bstar": 0.0039014101,
        "meta_mean_motion_dot": 0.00175832,
        "meta_mean_motion_ddot": 0,
        "tle_line1": "1 34429U 93036RW  25349.91535748  .00175832  00000+0  39014-2 0  9992",
        "tle_line2": "2 34429  73.9688 161.0978 0008875 359.8744 162.2244 15.42937946894973"
      },
      "geometry": {
        "type": "Point",
        "coordinates": [
          5.3998113131445145,
          -57.15757925919981
        ]
      }
    },
    {
      "type": "Feature",
      "properties": {
        "norad_id": 34430,
        "name": "COSMOS 2251 DEB",
        "group": "cosmos-2251-debris",
        "lat": -43.32832494979023,
        "lon": 131.33048747238135,
        "alt_km": 798.3719262559744,
        "timestamp": "2025-12-16T21:38:57.569567+00:00",
        "meta_object_name": "COSMOS 2251 DEB",
        "meta_object_id": "1993-036RX",
        "meta_epoch": "2025-12-16T07:15:41.801760",
        "meta_mean_motion": 14.39644591,
        "meta_eccentricity": 0.00605007,
        "meta_inclination": 74.052,
        "meta_ra_of_asc_node": 296.7878,
        "meta_arg_of_pericenter": 5.5427,
        "meta_mean_anomaly": 354.6383,
        "meta_ephemeris_type": 0,
        "meta_classification_type": "U",
        "meta_norad_cat_id": 34430,
        "meta_element_set_no": 999,
        "meta_rev_at_epoch": 88006,
        "meta_bstar": 0.00040711134,
        "meta_mean_motion_dot": 1.274e-05,
        "meta_mean_motion_ddot": 0,
        "tle_line1": "1 34430U 93036RX  25350.30256715  .00001274  00000+0  40711-3 0  9998",
        "tle_line2": "2 34430  74.0520 296.7878 0060500   5.5427 354.6383 14.39644591880065"
      },
      "geometry": {
        "type": "Point",
        "coordinates": [
          131.33048747238135,
          -43.32832494979023
        ]
      }
    },
    {
      "type": "Feature",
      "properties": {
        "norad_id": 34431,
        "name": "COSMOS 2251 DEB",
        "group": "cosmos-2251-debris",
        "lat": -33.34445728415724,
        "lon": 156.8367369716463,
        "alt_km": 850.0965695872683,
        "timestamp": "2025-12-16T21:38:57.569577+00:00",
        "meta_object_name": "COSMOS 2251 DEB",
        "meta_object_id": "1993-036RY",
        "meta_epoch": "2025-12-15T22:17:17.901024",
        "meta_mean_motion": 14.28785587,
        "meta_eccentricity": 0.00681464,
        "meta_inclination": 74.0739,
        "meta_ra_of_asc_node": 169.4271,
        "meta_arg_of_pericenter": 154.2806,
        "meta_mean_anomaly": 206.1759,
        "meta_ephemeris_type": 0,
        "meta_classification_type": "U",
        "meta_norad_cat_id": 34431,
        "meta_element_set_no": 999,
        "meta_rev_at_epoch": 87188,
        "meta_bstar": 0.0005372417,
        "meta_mean_motion_dot": 1.363e-05,
        "meta_mean_motion_ddot": 0,
        "tle_line1": "1 34431U 93036RY  25349.92867941  .00001363  00000+0  53724-3 0  9991",
        "tle_line2": "2 34431  74.0739 169.4271 0068146 154.2806 206.1759 14.28785587871885"
      },
      "geometry": {
        "type": "Point",
        "coordinates": [
          156.8367369716463,
          -33.34445728415724
        ]
      }
    },
    {
      "type": "Feature",
      "properties": {
        "norad_id": 34432,
        "name": "COSMOS 2251 DEB",
        "group": "cosmos-2251-debris",
        "lat": -51.326474704043285,
        "lon": 73.73644399724456,
        "alt_km": 971.4430547080374,
        "timestamp": "2025-12-16T21:38:57.569588+00:00",
        "meta_object_name": "COSMOS 2251 DEB",
        "meta_object_id": "1993-036RZ",
        "meta_epoch": "2025-12-16T08:30:07.459200",
        "meta_mean_motion": 14.0292427,
        "meta_eccentricity": 0.01822172,
        "meta_inclination": 73.8289,
        "meta_ra_of_asc_node": 95.9565,
        "meta_arg_of_pericenter": 178.0798,
        "meta_mean_anomaly": 240.3356,
        "meta_ephemeris_type": 0,
        "meta_classification_type": "U",
        "meta_norad_cat_id": 34432,
        "meta_element_set_no": 999,
        "meta_rev_at_epoch": 85735,
        "meta_bstar": 0.00098334986,
        "meta_mean_motion_dot": 1.74e-05,
        "meta_mean_motion_ddot": 0,
        "tle_line1": "1 34432U 93036RZ  25350.35425300  .00001740  00000+0  98335-3 0  9996",
        "tle_line2": "2 34432  73.8289  95.9565 0182217 178.0798 240.3356 14.02924270857357"
      },
      "geometry": {
        "type": "Point",
        "coordinates": [
          73.73644399724456,
          -51.326474704043285
        ]
      }
    },
    {
      "type": "Feature",
      "properties": {
        "norad_id": 34433,
        "name": "COSMOS 2251 DEB",
        "group": "cosmos-2251-debris",
        "lat": 59.2012405273517,
        "lon": -61.18506785568429,
        "alt_km": 951.2676853447228,
        "timestamp": "2025-12-16T21:38:57.569598+00:00",
        "meta_object_name": "COSMOS 2251 DEB",
        "meta_object_id": "1993-036SA",
        "meta_epoch": "2025-12-15T21:17:56.521536",
        "meta_mean_motion": 14.1286834,
        "meta_eccentricity": 0.01524673,
        "meta_inclination": 74.0101,
        "meta_ra_of_asc_node": 149.3638,
        "meta_arg_of_pericenter": 286.8174,
        "meta_mean_anomaly": 71.6289,
        "meta_ephemeris_type": 0,
        "meta_classification_type": "U",
        "meta_norad_cat_id": 34433,
        "meta_element_set_no": 999,
        "meta_rev_at_epoch": 85994,
        "meta_bstar": 0.00092097603,
        "meta_mean_motion_dot": 1.887e-05,
        "meta_mean_motion_ddot": 0,
        "tle_line1": "1 34433U 93036SA  25349.88745974  .00001887  00000+0  92098-3 0  9997",
        "tle_line2": "2 34433  74.0101 149.3638 0152467 286.8174  71.6289 14.12868340859942"
      },
      "geometry": {
        "type": "Point",
        "coordinates": [
          -61.18506785568429,
          59.2012405273517
        ]
      }
    }
  ]
}